[
{"product_id": "", "sponsored": "", "rank": "", "city": "Delhi", "pincode": 110017, "storeid": 1382291.0, "product_url": "", "location_info": "", "Keyword": "Cake", "platform": "SwiggyInstamart"},
{"product_id": "", "sponsored": "", "rank": "", "city": "Mumbai", "pincode": 400050, "storeid": 969383.0, "product_url": "", "location_info": "", "Keyword": "Cake", "platform": "SwiggyInstamart"},
{"product_id": "", "sponsored": "", "rank": "", "city": "Pune", "pincode": 411014, "storeid": 1389691.0, "product_url": "", "location_info": "", "Keyword": "Cake", "platform": "SwiggyInstamart"},
{"product_id": "", "sponsored": "", "rank": "", "city": "Delhi", "pincode": 110048, "storeid": null, "product_url": "", "location_info": "", "Keyword": "Cake", "platform": "SwiggyInstamart"},
{"product_id": "", "sponsored": "", "rank": "", "city": "Hyderabad", "pincode": 500014, "storeid": 1388312.0, "product_url": "", "location_info": "", "Keyword": "Cake", "platform": "SwiggyInstamart"},
{"product_id": "", "sponsored": "", "rank": "", "city": "Mumbai", "pincode": 400053, "storeid": null, "product_url": "", "location_info": "", "Keyword": "Cake", "platform": "SwiggyInstamart"},
{"product_id": "", "sponsored": "", "rank": "", "city": "Hyderabad", "pincode": 500084, "storeid": 1386094.0, "product_url": "", "location_info": "", "Keyword": "Cake", "platform": "SwiggyInstamart"},
{"product_id": "", "sponsored": "", "rank": "", "city": "Kolkata", "pincode": 700075, "storeid": null, "product_url": "", "location_info": "", "Keyword": "Cake", "platform": "SwiggyInstamart"},
{"product_id": "", "sponsored": "", "rank": "", "city": "Pune", "pincode": 412202, "storeid": null, "product_url": "", "location_info": "", "Keyword": "Cake", "platform": "SwiggyInstamart"},
{"product_id": "", "sponsored": "", "rank": "", "city": "Mumbai", "pincode": 400057, "storeid": null, "product_url": "", "location_info": "", "Keyword": "Cake", "platform": "SwiggyInstamart"},
{"product_id": "", "sponsored": "", "rank": "", "city": "Bangalore", "pincode": 560066, "storeid": 762610.0, "product_url": "", "location_info": "", "Keyword": "Cake", "platform": "SwiggyInstamart"},
{"product_id": "", "sponsored": "", "rank": "", "city": "Pune", "pincode": 411057, "storeid": null, "product_url": "", "location_info": "", "Keyword": "Cake", "platform": "SwiggyInstamart"},
{"product_id": "", "sponsored": "", "rank": "", "city": "Bangalore", "pincode": 560078, "storeid": 1237709.0, "product_url": "", "location_info": "", "Keyword": "Cake", "platform": "SwiggyInstamart"},
{"product_id": "", "sponsored": "", "rank": "", "city": "Hyderabad", "pincode": 501501, "storeid": null, "product_url": "", "location_info": "", "Keyword": "Cake", "platform": "SwiggyInstamart"},
{"product_id": "", "sponsored": "", "rank": "", "city": "Bangalore", "pincode": 560102, "storeid": 1231052.0, "product_url": "", "location_info": "", "Keyword": "Cake", "platform": "SwiggyInstamart"},
{"product_id": "", "sponsored": "", "rank": "", "city": "Delhi", "pincode": 110017, "storeid": 1382291.0, "product_url": "", "location_info": "", "Keyword": "Cakes", "platform": "SwiggyInstamart"},
{"product_id": "", "sponsored": "", "rank": "", "city": "Kolkata", "pincode": 700027, "storeid": null, "product_url": "", "location_info": "", "Keyword": "Cake", "platform": "SwiggyInstamart"},
{"product_id": "", "sponsored": "", "rank": "", "city": "Mumbai", "pincode": 400050, "storeid": 969383.0, "product_url": "", "location_info": "", "Keyword": "Cakes", "platform": "SwiggyInstamart"},
{"product_id": "", "sponsored": "", "rank": "", "city": "Delhi", "pincode": 110048, "storeid": null, "product_url": "", "location_info": "", "Keyword": "Cakes", "platform": "SwiggyInstamart"},
{"product_id": "", "sponsored": "", "rank": "", "city": "Kolkata", "pincode": 700075, "storeid": null, "product_url": "", "location_info": "", "Keyword": "Cakes", "platform": "SwiggyInstamart"},
{"product_id": "", "sponsored": "", "rank": "", "city": "Pune", "pincode": 411014, "storeid": 1389691.0, "product_url": "", "location_info": "", "Keyword": "Cakes", "platform": "SwiggyInstamart"},
{"product_id": "", "sponsored": "", "rank": "", "city": "Mumbai", "pincode": 400053, "storeid": null, "product_url": "", "location_info": "", "Keyword": "Cakes", "platform": "SwiggyInstamart"},
{"product_id": "", "sponsored": "", "rank": "", "city": "Mumbai", "pincode": 400057, "storeid": null, "product_url": "", "location_info": "", "Keyword": "Cakes", "platform": "SwiggyInstamart"},
{"product_id": "", "sponsored": "", "rank": "", "city": "Hyderabad", "pincode": 500014, "storeid": 1388312.0, "product_url": "", "location_info": "", "Keyword": "Cakes", "platform": "SwiggyInstamart"},
{"product_id": "", "sponsored": "", "rank": "", "city": "Pune", "pincode": 411057, "storeid": null, "product_url": "", "location_info": "", "Keyword": "Cakes", "platform": "SwiggyInstamart"},
{"product_id": "", "sponsored": "", "rank": "", "city": "Hyderabad", "pincode": 500084, "storeid": 1386094.0, "product_url": "", "location_info": "", "Keyword": "Cakes", "platform": "SwiggyInstamart"},
{"product_id": "", "sponsored": "", "rank": "", "city": "Pune", "pincode": 412202, "storeid": null, "product_url": "", "location_info": "", "Keyword": "Cakes", "platform": "SwiggyInstamart"},
{"product_id": "", "sponsored": "", "rank": "", "city": "Bangalore", "pincode": 560066, "storeid": 762610.0, "product_url": "", "location_info": "", "Keyword": "Cakes", "platform": "SwiggyInstamart"},
{"product_id": "", "sponsored": "", "rank": "", "city": "Bangalore", "pincode": 560078, "storeid": 1237709.0, "product_url": "", "location_info": "", "Keyword": "Cakes", "platform": "SwiggyInstamart"},
{"product_id": "", "sponsored": "", "rank": "", "city": "Hyderabad", "pincode": 501501, "storeid": null, "product_url": "", "location_info": "", "Keyword": "Cakes", "platform": "SwiggyInstamart"},
{"product_id": "", "sponsored": "", "rank": "", "city": "Bangalore", "pincode": 560102, "storeid": 1231052.0, "product_url": "", "location_info": "", "Keyword": "Cakes", "platform": "SwiggyInstamart"},
{"product_id": "", "sponsored": "", "rank": "", "city": "Delhi", "pincode": 110017, "storeid": 1382291.0, "product_url": "", "location_info": "", "Keyword": "Cookie", "platform": "SwiggyInstamart"},
{"product_id": "", "sponsored": "", "rank": "", "city": "Kolkata", "pincode": 700027, "storeid": null, "product_url": "", "location_info": "", "Keyword": "Cakes", "platform": "SwiggyInstamart"},
{"product_id": "", "sponsored": "", "rank": "", "city": "Mumbai", "pincode": 400050, "storeid": 969383.0, "product_url": "", "location_info": "", "Keyword": "Cookie", "platform": "SwiggyInstamart"},
{"product_id": "", "sponsored": "", "rank": "", "city": "Delhi", "pincode": 110048, "storeid": null, "product_url": "", "location_info": "", "Keyword": "Cookie", "platform": "SwiggyInstamart"},
{"product_id": "", "sponsored": "", "rank": "", "city": "Kolkata", "pincode": 700075, "storeid": null, "product_url": "", "location_info": "", "Keyword": "Cookie", "platform": "SwiggyInstamart"},
{"product_id": "", "sponsored": "", "rank": "", "city": "Pune", "pincode": 411014, "storeid": 1389691.0, "product_url": "", "location_info": "", "Keyword": "Cookie", "platform": "SwiggyInstamart"},
{"product_id": "", "sponsored": "", "rank": "", "city": "Mumbai", "pincode": 400053, "storeid": null, "product_url": "", "location_info": "", "Keyword": "Cookie", "platform": "SwiggyInstamart"},
{"product_id": "", "sponsored": "", "rank": "", "city": "Mumbai", "pincode": 400057, "storeid": null, "product_url": "", "location_info": "", "Keyword": "Cookie", "platform": "SwiggyInstamart"},
{"product_id": "", "sponsored": "", "rank": "", "city": "Hyderabad", "pincode": 500014, "storeid": 1388312.0, "product_url": "", "location_info": "", "Keyword": "Cookie", "platform": "SwiggyInstamart"},
{"product_id": "", "sponsored": "", "rank": "", "city": "Pune", "pincode": 411057, "storeid": null, "product_url": "", "location_info": "", "Keyword": "Cookie", "platform": "SwiggyInstamart"},
{"product_id": "", "sponsored": "", "rank": "", "city": "Hyderabad", "pincode": 500084, "storeid": 1386094.0, "product_url": "", "location_info": "", "Keyword": "Cookie", "platform": "SwiggyInstamart"},
{"product_id": "", "sponsored": "", "rank": "", "city": "Pune", "pincode": 412202, "storeid": null, "product_url": "", "location_info": "", "Keyword": "Cookie", "platform": "SwiggyInstamart"},
{"product_id": "", "sponsored": "", "rank": "", "city": "Bangalore", "pincode": 560066, "storeid": 762610.0, "product_url": "", "location_info": "", "Keyword": "Cookie", "platform": "SwiggyInstamart"},
{"product_id": "", "sponsored": "", "rank": "", "city": "Bangalore", "pincode": 560078, "storeid": 1237709.0, "product_url": "", "location_info": "", "Keyword": "Cookie", "platform": "SwiggyInstamart"},
{"product_id": "", "sponsored": "", "rank": "", "city": "Hyderabad", "pincode": 501501, "storeid": null, "product_url": "", "location_info": "", "Keyword": "Cookie", "platform": "SwiggyInstamart"},
{"product_id": "", "sponsored": "", "rank": "", "city": "Bangalore", "pincode": 560102, "storeid": 1231052.0, "product_url": "", "location_info": "", "Keyword": "Cookie", "platform": "SwiggyInstamart"},
{"product_id": "", "sponsored": "", "rank": "", "city": "Delhi", "pincode": 110017, "storeid": 1382291.0, "product_url": "", "location_info": "", "Keyword": "Cookies", "platform": "SwiggyInstamart"},
{"product_id": "", "sponsored": "", "rank": "", "city": "Kolkata", "pincode": 700027, "storeid": null, "product_url": "", "location_info": "", "Keyword": "Cookie", "platform": "SwiggyInstamart"},
{"product_id": "", "sponsored": "", "rank": "", "city": "Mumbai", "pincode": 400050, "storeid": 969383.0, "product_url": "", "location_info": "", "Keyword": "Cookies", "platform": "SwiggyInstamart"},
{"product_id": "", "sponsored": "", "rank": "", "city": "Delhi", "pincode": 110048, "storeid": null, "product_url": "", "location_info": "", "Keyword": "Cookies", "platform": "SwiggyInstamart"},
{"product_id": "", "sponsored": "", "rank": "", "city": "Kolkata", "pincode": 700075, "storeid": null, "product_url": "", "location_info": "", "Keyword": "Cookies", "platform": "SwiggyInstamart"},
{"product_id": "", "sponsored": "", "rank": "", "city": "Pune", "pincode": 411014, "storeid": 1389691.0, "product_url": "", "location_info": "", "Keyword": "Cookies", "platform": "SwiggyInstamart"},
{"product_id": "", "sponsored": "", "rank": "", "city": "Mumbai", "pincode": 400053, "storeid": null, "product_url": "", "location_info": "", "Keyword": "Cookies", "platform": "SwiggyInstamart"},
{"product_id": "", "sponsored": "", "rank": "", "city": "Mumbai", "pincode": 400057, "storeid": null, "product_url": "", "location_info": "", "Keyword": "Cookies", "platform": "SwiggyInstamart"},
{"product_id": "", "sponsored": "", "rank": "", "city": "Hyderabad", "pincode": 500014, "storeid": 1388312.0, "product_url": "", "location_info": "", "Keyword": "Cookies", "platform": "SwiggyInstamart"},
{"product_id": "", "sponsored": "", "rank": "", "city": "Pune", "pincode": 411057, "storeid": null, "product_url": "", "location_info": "", "Keyword": "Cookies", "platform": "SwiggyInstamart"},
{"product_id": "", "sponsored": "", "rank": "", "city": "Hyderabad", "pincode": 500084, "storeid": 1386094.0, "product_url": "", "location_info": "", "Keyword": "Cookies", "platform": "SwiggyInstamart"},
{"product_id": "", "sponsored": "", "rank": "", "city": "Pune", "pincode": 412202, "storeid": null, "product_url": "", "location_info": "", "Keyword": "Cookies", "platform": "SwiggyInstamart"},
{"product_id": "", "sponsored": "", "rank": "", "city": "Bangalore", "pincode": 560066, "storeid": 762610.0, "product_url": "", "location_info": "", "Keyword": "Cookies", "platform": "SwiggyInstamart"},
{"product_id": "", "sponsored": "", "rank": "", "city": "Bangalore", "pincode": 560078, "storeid": 1237709.0, "product_url": "", "location_info": "", "Keyword": "Cookies", "platform": "SwiggyInstamart"},
{"product_id": "", "sponsored": "", "rank": "", "city": "Hyderabad", "pincode": 501501, "storeid": null, "product_url": "", "location_info": "", "Keyword": "Cookies", "platform": "SwiggyInstamart"},
{"product_id": "", "sponsored": "", "rank": "", "city": "Bangalore", "pincode": 560102, "storeid": 1231052.0, "product_url": "", "location_info": "", "Keyword": "Cookies", "platform": "SwiggyInstamart"},
{"product_id": "", "sponsored": "", "rank": "", "city": "Delhi", "pincode": 110017, "storeid": 1382291.0, "product_url": "", "location_info": "", "Keyword": "Bread", "platform": "SwiggyInstamart"},
{"product_id": "", "sponsored": "", "rank": "", "city": "Kolkata", "pincode": 700027, "storeid": null, "product_url": "", "location_info": "", "Keyword": "Cookies", "platform": "SwiggyInstamart"},
{"product_id": "", "sponsored": "", "rank": "", "city": "Mumbai", "pincode": 400050, "storeid": 969383.0, "product_url": "", "location_info": "", "Keyword": "Bread", "platform": "SwiggyInstamart"},
{"product_id": "", "sponsored": "", "rank": "", "city": "Delhi", "pincode": 110048, "storeid": null, "product_url": "", "location_info": "", "Keyword": "Bread", "platform": "SwiggyInstamart"},
{"product_id": "", "sponsored": "", "rank": "", "city": "Kolkata", "pincode": 700075, "storeid": null, "product_url": "", "location_info": "", "Keyword": "Bread", "platform": "SwiggyInstamart"},
{"product_id": "", "sponsored": "", "rank": "", "city": "Pune", "pincode": 411014, "storeid": 1389691.0, "product_url": "", "location_info": "", "Keyword": "Bread", "platform": "SwiggyInstamart"},
{"product_id": "", "sponsored": "", "rank": "", "city": "Mumbai", "pincode": 400053, "storeid": null, "product_url": "", "location_info": "", "Keyword": "Bread", "platform": "SwiggyInstamart"},
{"product_id": "", "sponsored": "", "rank": "", "city": "Mumbai", "pincode": 400057, "storeid": null, "product_url": "", "location_info": "", "Keyword": "Bread", "platform": "SwiggyInstamart"},
{"product_id": "", "sponsored": "", "rank": "", "city": "Hyderabad", "pincode": 500014, "storeid": 1388312.0, "product_url": "", "location_info": "", "Keyword": "Bread", "platform": "SwiggyInstamart"},
{"product_id": "", "sponsored": "", "rank": "", "city": "Pune", "pincode": 411057, "storeid": null, "product_url": "", "location_info": "", "Keyword": "Bread", "platform": "SwiggyInstamart"},
{"product_id": "", "sponsored": "", "rank": "", "city": "Hyderabad", "pincode": 500084, "storeid": 1386094.0, "product_url": "", "location_info": "", "Keyword": "Bread", "platform": "SwiggyInstamart"},
{"product_id": "", "sponsored": "", "rank": "", "city": "Pune", "pincode": 412202, "storeid": null, "product_url": "", "location_info": "", "Keyword": "Bread", "platform": "SwiggyInstamart"},
{"product_id": "", "sponsored": "", "rank": "", "city": "Bangalore", "pincode": 560066, "storeid": 762610.0, "product_url": "", "location_info": "", "Keyword": "Bread", "platform": "SwiggyInstamart"},
{"product_id": "", "sponsored": "", "rank": "", "city": "Bangalore", "pincode": 560078, "storeid": 1237709.0, "product_url": "", "location_info": "", "Keyword": "Bread", "platform": "SwiggyInstamart"},
{"product_id": "", "sponsored": "", "rank": "", "city": "Hyderabad", "pincode": 501501, "storeid": null, "product_url": "", "location_info": "", "Keyword": "Bread", "platform": "SwiggyInstamart"},
{"product_id": "", "sponsored": "", "rank": "", "city": "Bangalore", "pincode": 560102, "storeid": 1231052.0, "product_url": "", "location_info": "", "Keyword": "Bread", "platform": "SwiggyInstamart"},
{"product_id": "", "sponsored": "", "rank": "", "city": "Delhi", "pincode": 110017, "storeid": 1382291.0, "product_url": "", "location_info": "", "Keyword": "Breads", "platform": "SwiggyInstamart"},
{"product_id": "", "sponsored": "", "rank": "", "city": "Kolkata", "pincode": 700027, "storeid": null, "product_url": "", "location_info": "", "Keyword": "Bread", "platform": "SwiggyInstamart"},
{"product_id": "", "sponsored": "", "rank": "", "city": "Mumbai", "pincode": 400050, "storeid": 969383.0, "product_url": "", "location_info": "", "Keyword": "Breads", "platform": "SwiggyInstamart"},
{"product_id": "", "sponsored": "", "rank": "", "city": "Delhi", "pincode": 110048, "storeid": null, "product_url": "", "location_info": "", "Keyword": "Breads", "platform": "SwiggyInstamart"},
{"product_id": "", "sponsored": "", "rank": "", "city": "Kolkata", "pincode": 700075, "storeid": null, "product_url": "", "location_info": "", "Keyword": "Breads", "platform": "SwiggyInstamart"},
{"product_id": "", "sponsored": "", "rank": "", "city": "Pune", "pincode": 411014, "storeid": 1389691.0, "product_url": "", "location_info": "", "Keyword": "Breads", "platform": "SwiggyInstamart"},
{"product_id": "", "sponsored": "", "rank": "", "city": "Mumbai", "pincode": 400053, "storeid": null, "product_url": "", "location_info": "", "Keyword": "Breads", "platform": "SwiggyInstamart"},
{"product_id": "", "sponsored": "", "rank": "", "city": "Mumbai", "pincode": 400057, "storeid": null, "product_url": "", "location_info": "", "Keyword": "Breads", "platform": "SwiggyInstamart"},
{"product_id": "", "sponsored": "", "rank": "", "city": "Hyderabad", "pincode": 500014, "storeid": 1388312.0, "product_url": "", "location_info": "", "Keyword": "Breads", "platform": "SwiggyInstamart"},
{"product_id": "", "sponsored": "", "rank": "", "city": "Hyderabad", "pincode": 500084, "storeid": 1386094.0, "product_url": "", "location_info": "", "Keyword": "Breads", "platform": "SwiggyInstamart"},
{"product_id": "", "sponsored": "", "rank": "", "city": "Pune", "pincode": 411057, "storeid": null, "product_url": "", "location_info": "", "Keyword": "Breads", "platform": "SwiggyInstamart"},
{"product_id": "", "sponsored": "", "rank": "", "city": "Pune", "pincode": 412202, "storeid": null, "product_url": "", "location_info": "", "Keyword": "Breads", "platform": "SwiggyInstamart"},
{"product_id": "", "sponsored": "", "rank": "", "city": "Bangalore", "pincode": 560066, "storeid": 762610.0, "product_url": "", "location_info": "", "Keyword": "Breads", "platform": "SwiggyInstamart"},
{"product_id": "", "sponsored": "", "rank": "", "city": "Bangalore", "pincode": 560078, "storeid": 1237709.0, "product_url": "", "location_info": "", "Keyword": "Breads", "platform": "SwiggyInstamart"},
{"product_id": "", "sponsored": "", "rank": "", "city": "Hyderabad", "pincode": 501501, "storeid": null, "product_url": "", "location_info": "", "Keyword": "Breads", "platform": "SwiggyInstamart"},
{"product_id": "", "sponsored": "", "rank": "", "city": "Bangalore", "pincode": 560102, "storeid": 1231052.0, "product_url": "", "location_info": "", "Keyword": "Breads", "platform": "SwiggyInstamart"},
{"product_id": "", "sponsored": "", "rank": "", "city": "Delhi", "pincode": 110017, "storeid": 1382291.0, "product_url": "", "location_info": "", "Keyword": "Snack", "platform": "SwiggyInstamart"},
{"product_id": "", "sponsored": "", "rank": "", "city": "Kolkata", "pincode": 700027, "storeid": null, "product_url": "", "location_info": "", "Keyword": "Breads", "platform": "SwiggyInstamart"},
{"product_id": "", "sponsored": "", "rank": "", "city": "Mumbai", "pincode": 400050, "storeid": 969383.0, "product_url": "", "location_info": "", "Keyword": "Snack", "platform": "SwiggyInstamart"},
{"product_id": "", "sponsored": "", "rank": "", "city": "Delhi", "pincode": 110048, "storeid": null, "product_url": "", "location_info": "", "Keyword": "Snack", "platform": "SwiggyInstamart"},
{"product_id": "", "sponsored": "", "rank": "", "city": "Kolkata", "pincode": 700075, "storeid": null, "product_url": "", "location_info": "", "Keyword": "Snack", "platform": "SwiggyInstamart"},
{"product_id": "", "sponsored": "", "rank": "", "city": "Pune", "pincode": 411014, "storeid": 1389691.0, "product_url": "", "location_info": "", "Keyword": "Snack", "platform": "SwiggyInstamart"},
{"product_id": "", "sponsored": "", "rank": "", "city": "Mumbai", "pincode": 400053, "storeid": null, "product_url": "", "location_info": "", "Keyword": "Snack", "platform": "SwiggyInstamart"},
{"product_id": "", "sponsored": "", "rank": "", "city": "Mumbai", "pincode": 400057, "storeid": null, "product_url": "", "location_info": "", "Keyword": "Snack", "platform": "SwiggyInstamart"},
{"product_id": "", "sponsored": "", "rank": "", "city": "Hyderabad", "pincode": 500014, "storeid": 1388312.0, "product_url": "", "location_info": "", "Keyword": "Snack", "platform": "SwiggyInstamart"},
{"product_id": "", "sponsored": "", "rank": "", "city": "Pune", "pincode": 411057, "storeid": null, "product_url": "", "location_info": "", "Keyword": "Snack", "platform": "SwiggyInstamart"},
{"product_id": "", "sponsored": "", "rank": "", "city": "Hyderabad", "pincode": 500084, "storeid": 1386094.0, "product_url": "", "location_info": "", "Keyword": "Snack", "platform": "SwiggyInstamart"},
{"product_id": "", "sponsored": "", "rank": "", "city": "Pune", "pincode": 412202, "storeid": null, "product_url": "", "location_info": "", "Keyword": "Snack", "platform": "SwiggyInstamart"},
{"product_id": "", "sponsored": "", "rank": "", "city": "Bangalore", "pincode": 560066, "storeid": 762610.0, "product_url": "", "location_info": "", "Keyword": "Snack", "platform": "SwiggyInstamart"},
{"product_id": "", "sponsored": "", "rank": "", "city": "Bangalore", "pincode": 560078, "storeid": 1237709.0, "product_url": "", "location_info": "", "Keyword": "Snack", "platform": "SwiggyInstamart"},
{"product_id": "", "sponsored": "", "rank": "", "city": "Bangalore", "pincode": 560102, "storeid": 1231052.0, "product_url": "", "location_info": "", "Keyword": "Snack", "platform": "SwiggyInstamart"},
{"product_id": "", "sponsored": "", "rank": "", "city": "Hyderabad", "pincode": 501501, "storeid": null, "product_url": "", "location_info": "", "Keyword": "Snack", "platform": "SwiggyInstamart"},
{"product_id": "", "sponsored": "", "rank": "", "city": "Delhi", "pincode": 110017, "storeid": 1382291.0, "product_url": "", "location_info": "", "Keyword": "Snacks", "platform": "SwiggyInstamart"},
{"product_id": "", "sponsored": "", "rank": "", "city": "Kolkata", "pincode": 700027, "storeid": null, "product_url": "", "location_info": "", "Keyword": "Snack", "platform": "SwiggyInstamart"},
{"product_id": "", "sponsored": "", "rank": "", "city": "Mumbai", "pincode": 400050, "storeid": 969383.0, "product_url": "", "location_info": "", "Keyword": "Snacks", "platform": "SwiggyInstamart"},
{"product_id": "", "sponsored": "", "rank": "", "city": "Delhi", "pincode": 110048, "storeid": null, "product_url": "", "location_info": "", "Keyword": "Snacks", "platform": "SwiggyInstamart"},
{"product_id": "", "sponsored": "", "rank": "", "city": "Kolkata", "pincode": 700075, "storeid": null, "product_url": "", "location_info": "", "Keyword": "Snacks", "platform": "SwiggyInstamart"},
{"product_id": "", "sponsored": "", "rank": "", "city": "Pune", "pincode": 411014, "storeid": 1389691.0, "product_url": "", "location_info": "", "Keyword": "Snacks", "platform": "SwiggyInstamart"},
{"product_id": "", "sponsored": "", "rank": "", "city": "Mumbai", "pincode": 400053, "storeid": null, "product_url": "", "location_info": "", "Keyword": "Snacks", "platform": "SwiggyInstamart"},
{"product_id": "", "sponsored": "", "rank": "", "city": "Mumbai", "pincode": 400057, "storeid": null, "product_url": "", "location_info": "", "Keyword": "Snacks", "platform": "SwiggyInstamart"},
{"product_id": "", "sponsored": "", "rank": "", "city": "Hyderabad", "pincode": 500014, "storeid": 1388312.0, "product_url": "", "location_info": "", "Keyword": "Snacks", "platform": "SwiggyInstamart"},
{"product_id": "", "sponsored": "", "rank": "", "city": "Pune", "pincode": 411057, "storeid": null, "product_url": "", "location_info": "", "Keyword": "Snacks", "platform": "SwiggyInstamart"},
{"product_id": "", "sponsored": "", "rank": "", "city": "Hyderabad", "pincode": 500084, "storeid": 1386094.0, "product_url": "", "location_info": "", "Keyword": "Snacks", "platform": "SwiggyInstamart"},
{"product_id": "", "sponsored": "", "rank": "", "city": "Pune", "pincode": 412202, "storeid": null, "product_url": "", "location_info": "", "Keyword": "Snacks", "platform": "SwiggyInstamart"},
{"product_id": "", "sponsored": "", "rank": "", "city": "Bangalore", "pincode": 560066, "storeid": 762610.0, "product_url": "", "location_info": "", "Keyword": "Snacks", "platform": "SwiggyInstamart"},
{"product_id": "", "sponsored": "", "rank": "", "city": "Bangalore", "pincode": 560078, "storeid": 1237709.0, "product_url": "", "location_info": "", "Keyword": "Snacks", "platform": "SwiggyInstamart"},
{"product_id": "", "sponsored": "", "rank": "", "city": "Hyderabad", "pincode": 501501, "storeid": null, "product_url": "", "location_info": "", "Keyword": "Snacks", "platform": "SwiggyInstamart"},
{"product_id": "", "sponsored": "", "rank": "", "city": "Bangalore", "pincode": 560102, "storeid": 1231052.0, "product_url": "", "location_info": "", "Keyword": "Snacks", "platform": "SwiggyInstamart"},
{"product_id": "", "sponsored": "", "rank": "", "city": "Delhi", "pincode": 110017, "storeid": 1382291.0, "product_url": "", "location_info": "", "Keyword": "Rusk", "platform": "SwiggyInstamart"},
{"product_id": "", "sponsored": "", "rank": "", "city": "Kolkata", "pincode": 700027, "storeid": null, "product_url": "", "location_info": "", "Keyword": "Snacks", "platform": "SwiggyInstamart"},
{"product_id": "", "sponsored": "", "rank": "", "city": "Mumbai", "pincode": 400050, "storeid": 969383.0, "product_url": "", "location_info": "", "Keyword": "Rusk", "platform": "SwiggyInstamart"},
{"product_id": "", "sponsored": "", "rank": "", "city": "Delhi", "pincode": 110048, "storeid": null, "product_url": "", "location_info": "", "Keyword": "Rusk", "platform": "SwiggyInstamart"},
{"product_id": "", "sponsored": "", "rank": "", "city": "Kolkata", "pincode": 700075, "storeid": null, "product_url": "", "location_info": "", "Keyword": "Rusk", "platform": "SwiggyInstamart"},
{"product_id": "", "sponsored": "", "rank": "", "city": "Pune", "pincode": 411014, "storeid": 1389691.0, "product_url": "", "location_info": "", "Keyword": "Rusk", "platform": "SwiggyInstamart"},
{"product_id": "", "sponsored": "", "rank": "", "city": "Mumbai", "pincode": 400053, "storeid": null, "product_url": "", "location_info": "", "Keyword": "Rusk", "platform": "SwiggyInstamart"},
{"product_id": "", "sponsored": "", "rank": "", "city": "Mumbai", "pincode": 400057, "storeid": null, "product_url": "", "location_info": "", "Keyword": "Rusk", "platform": "SwiggyInstamart"},
{"product_id": "", "sponsored": "", "rank": "", "city": "Hyderabad", "pincode": 500014, "storeid": 1388312.0, "product_url": "", "location_info": "", "Keyword": "Rusk", "platform": "SwiggyInstamart"},
{"product_id": "", "sponsored": "", "rank": "", "city": "Pune", "pincode": 411057, "storeid": null, "product_url": "", "location_info": "", "Keyword": "Rusk", "platform": "SwiggyInstamart"},
{"product_id": "", "sponsored": "", "rank": "", "city": "Hyderabad", "pincode": 500084, "storeid": 1386094.0, "product_url": "", "location_info": "", "Keyword": "Rusk", "platform": "SwiggyInstamart"},
{"product_id": "", "sponsored": "", "rank": "", "city": "Pune", "pincode": 412202, "storeid": null, "product_url": "", "location_info": "", "Keyword": "Rusk", "platform": "SwiggyInstamart"},
{"product_id": "", "sponsored": "", "rank": "", "city": "Bangalore", "pincode": 560066, "storeid": 762610.0, "product_url": "", "location_info": "", "Keyword": "Rusk", "platform": "SwiggyInstamart"},
{"product_id": "", "sponsored": "", "rank": "", "city": "Bangalore", "pincode": 560078, "storeid": 1237709.0, "product_url": "", "location_info": "", "Keyword": "Rusk", "platform": "SwiggyInstamart"},
{"product_id": "", "sponsored": "", "rank": "", "city": "Hyderabad", "pincode": 501501, "storeid": null, "product_url": "", "location_info": "", "Keyword": "Rusk", "platform": "SwiggyInstamart"},
{"product_id": "", "sponsored": "", "rank": "", "city": "Bangalore", "pincode": 560102, "storeid": 1231052.0, "product_url": "", "location_info": "", "Keyword": "Rusk", "platform": "SwiggyInstamart"},
{"product_id": "", "sponsored": "", "rank": "", "city": "Delhi", "pincode": 110017, "storeid": 1382291.0, "product_url": "", "location_info": "", "Keyword": "Rusks", "platform": "SwiggyInstamart"},
{"product_id": "", "sponsored": "", "rank": "", "city": "Kolkata", "pincode": 700027, "storeid": null, "product_url": "", "location_info": "", "Keyword": "Rusk", "platform": "SwiggyInstamart"},
{"product_id": "", "sponsored": "", "rank": "", "city": "Mumbai", "pincode": 400050, "storeid": 969383.0, "product_url": "", "location_info": "", "Keyword": "Rusks", "platform": "SwiggyInstamart"},
{"product_id": "", "sponsored": "", "rank": "", "city": "Delhi", "pincode": 110048, "storeid": null, "product_url": "", "location_info": "", "Keyword": "Rusks", "platform": "SwiggyInstamart"},
{"product_id": "", "sponsored": "", "rank": "", "city": "Kolkata", "pincode": 700075, "storeid": null, "product_url": "", "location_info": "", "Keyword": "Rusks", "platform": "SwiggyInstamart"},
{"product_id": "", "sponsored": "", "rank": "", "city": "Pune", "pincode": 411014, "storeid": 1389691.0, "product_url": "", "location_info": "", "Keyword": "Rusks", "platform": "SwiggyInstamart"},
{"product_id": "", "sponsored": "", "rank": "", "city": "Mumbai", "pincode": 400053, "storeid": null, "product_url": "", "location_info": "", "Keyword": "Rusks", "platform": "SwiggyInstamart"},
{"product_id": "", "sponsored": "", "rank": "", "city": "Mumbai", "pincode": 400057, "storeid": null, "product_url": "", "location_info": "", "Keyword": "Rusks", "platform": "SwiggyInstamart"},
{"product_id": "", "sponsored": "", "rank": "", "city": "Hyderabad", "pincode": 500014, "storeid": 1388312.0, "product_url": "", "location_info": "", "Keyword": "Rusks", "platform": "SwiggyInstamart"},
{"product_id": "", "sponsored": "", "rank": "", "city": "Pune", "pincode": 411057, "storeid": null, "product_url": "", "location_info": "", "Keyword": "Rusks", "platform": "SwiggyInstamart"},
{"product_id": "", "sponsored": "", "rank": "", "city": "Hyderabad", "pincode": 500084, "storeid": 1386094.0, "product_url": "", "location_info": "", "Keyword": "Rusks", "platform": "SwiggyInstamart"},
{"product_id": "", "sponsored": "", "rank": "", "city": "Pune", "pincode": 412202, "storeid": null, "product_url": "", "location_info": "", "Keyword": "Rusks", "platform": "SwiggyInstamart"},
{"product_id": "", "sponsored": "", "rank": "", "city": "Bangalore", "pincode": 560066, "storeid": 762610.0, "product_url": "", "location_info": "", "Keyword": "Rusks", "platform": "SwiggyInstamart"},
{"product_id": "", "sponsored": "", "rank": "", "city": "Bangalore", "pincode": 560078, "storeid": 1237709.0, "product_url": "", "location_info": "", "Keyword": "Rusks", "platform": "SwiggyInstamart"},
{"product_id": "", "sponsored": "", "rank": "", "city": "Hyderabad", "pincode": 501501, "storeid": null, "product_url": "", "location_info": "", "Keyword": "Rusks", "platform": "SwiggyInstamart"},
{"product_id": "", "sponsored": "", "rank": "", "city": "Bangalore", "pincode": 560102, "storeid": 1231052.0, "product_url": "", "location_info": "", "Keyword": "Rusks", "platform": "SwiggyInstamart"},
{"product_id": "", "sponsored": "", "rank": "", "city": "Delhi", "pincode": 110017, "storeid": 1382291.0, "product_url": "", "location_info": "", "Keyword": "Toast", "platform": "SwiggyInstamart"},
{"product_id": "", "sponsored": "", "rank": "", "city": "Kolkata", "pincode": 700027, "storeid": null, "product_url": "", "location_info": "", "Keyword": "Rusks", "platform": "SwiggyInstamart"},
{"product_id": "", "sponsored": "", "rank": "", "city": "Mumbai", "pincode": 400050, "storeid": 969383.0, "product_url": "", "location_info": "", "Keyword": "Toast", "platform": "SwiggyInstamart"},
{"product_id": "", "sponsored": "", "rank": "", "city": "Delhi", "pincode": 110048, "storeid": null, "product_url": "", "location_info": "", "Keyword": "Toast", "platform": "SwiggyInstamart"},
{"product_id": "", "sponsored": "", "rank": "", "city": "Kolkata", "pincode": 700075, "storeid": null, "product_url": "", "location_info": "", "Keyword": "Toast", "platform": "SwiggyInstamart"},
{"product_id": "", "sponsored": "", "rank": "", "city": "Pune", "pincode": 411014, "storeid": 1389691.0, "product_url": "", "location_info": "", "Keyword": "Toast", "platform": "SwiggyInstamart"},
{"product_id": "", "sponsored": "", "rank": "", "city": "Mumbai", "pincode": 400053, "storeid": null, "product_url": "", "location_info": "", "Keyword": "Toast", "platform": "SwiggyInstamart"},
{"product_id": "", "sponsored": "", "rank": "", "city": "Mumbai", "pincode": 400057, "storeid": null, "product_url": "", "location_info": "", "Keyword": "Toast", "platform": "SwiggyInstamart"},
{"product_id": "", "sponsored": "", "rank": "", "city": "Hyderabad", "pincode": 500014, "storeid": 1388312.0, "product_url": "", "location_info": "", "Keyword": "Toast", "platform": "SwiggyInstamart"},
{"product_id": "", "sponsored": "", "rank": "", "city": "Pune", "pincode": 411057, "storeid": null, "product_url": "", "location_info": "", "Keyword": "Toast", "platform": "SwiggyInstamart"},
{"product_id": "", "sponsored": "", "rank": "", "city": "Hyderabad", "pincode": 500084, "storeid": 1386094.0, "product_url": "", "location_info": "", "Keyword": "Toast", "platform": "SwiggyInstamart"},
{"product_id": "", "sponsored": "", "rank": "", "city": "Pune", "pincode": 412202, "storeid": null, "product_url": "", "location_info": "", "Keyword": "Toast", "platform": "SwiggyInstamart"},
{"product_id": "", "sponsored": "", "rank": "", "city": "Bangalore", "pincode": 560066, "storeid": 762610.0, "product_url": "", "location_info": "", "Keyword": "Toast", "platform": "SwiggyInstamart"},
{"product_id": "", "sponsored": "", "rank": "", "city": "Bangalore", "pincode": 560078, "storeid": 1237709.0, "product_url": "", "location_info": "", "Keyword": "Toast", "platform": "SwiggyInstamart"},
{"product_id": "", "sponsored": "", "rank": "", "city": "Hyderabad", "pincode": 501501, "storeid": null, "product_url": "", "location_info": "", "Keyword": "Toast", "platform": "SwiggyInstamart"},
{"product_id": "", "sponsored": "", "rank": "", "city": "Bangalore", "pincode": 560102, "storeid": 1231052.0, "product_url": "", "location_info": "", "Keyword": "Toast", "platform": "SwiggyInstamart"},
{"product_id": "", "sponsored": "", "rank": "", "city": "Delhi", "pincode": 110017, "storeid": 1382291.0, "product_url": "", "location_info": "", "Keyword": "Cracker", "platform": "SwiggyInstamart"},
{"product_id": "", "sponsored": "", "rank": "", "city": "Kolkata", "pincode": 700027, "storeid": null, "product_url": "", "location_info": "", "Keyword": "Toast", "platform": "SwiggyInstamart"},
{"product_id": "", "sponsored": "", "rank": "", "city": "Mumbai", "pincode": 400050, "storeid": 969383.0, "product_url": "", "location_info": "", "Keyword": "Cracker", "platform": "SwiggyInstamart"},
{"product_id": "", "sponsored": "", "rank": "", "city": "Delhi", "pincode": 110048, "storeid": null, "product_url": "", "location_info": "", "Keyword": "Cracker", "platform": "SwiggyInstamart"},
{"product_id": "", "sponsored": "", "rank": "", "city": "Kolkata", "pincode": 700075, "storeid": null, "product_url": "", "location_info": "", "Keyword": "Cracker", "platform": "SwiggyInstamart"},
{"product_id": "", "sponsored": "", "rank": "", "city": "Pune", "pincode": 411014, "storeid": 1389691.0, "product_url": "", "location_info": "", "Keyword": "Cracker", "platform": "SwiggyInstamart"},
{"product_id": "", "sponsored": "", "rank": "", "city": "Mumbai", "pincode": 400053, "storeid": null, "product_url": "", "location_info": "", "Keyword": "Cracker", "platform": "SwiggyInstamart"},
{"product_id": "", "sponsored": "", "rank": "", "city": "Mumbai", "pincode": 400057, "storeid": null, "product_url": "", "location_info": "", "Keyword": "Cracker", "platform": "SwiggyInstamart"},
{"product_id": "", "sponsored": "", "rank": "", "city": "Hyderabad", "pincode": 500014, "storeid": 1388312.0, "product_url": "", "location_info": "", "Keyword": "Cracker", "platform": "SwiggyInstamart"},
{"product_id": "", "sponsored": "", "rank": "", "city": "Pune", "pincode": 411057, "storeid": null, "product_url": "", "location_info": "", "Keyword": "Cracker", "platform": "SwiggyInstamart"},
{"product_id": "", "sponsored": "", "rank": "", "city": "Hyderabad", "pincode": 500084, "storeid": 1386094.0, "product_url": "", "location_info": "", "Keyword": "Cracker", "platform": "SwiggyInstamart"},
{"product_id": "", "sponsored": "", "rank": "", "city": "Pune", "pincode": 412202, "storeid": null, "product_url": "", "location_info": "", "Keyword": "Cracker", "platform": "SwiggyInstamart"},
{"product_id": "", "sponsored": "", "rank": "", "city": "Bangalore", "pincode": 560066, "storeid": 762610.0, "product_url": "", "location_info": "", "Keyword": "Cracker", "platform": "SwiggyInstamart"},
{"product_id": "", "sponsored": "", "rank": "", "city": "Bangalore", "pincode": 560078, "storeid": 1237709.0, "product_url": "", "location_info": "", "Keyword": "Cracker", "platform": "SwiggyInstamart"},
{"product_id": "", "sponsored": "", "rank": "", "city": "Hyderabad", "pincode": 501501, "storeid": null, "product_url": "", "location_info": "", "Keyword": "Cracker", "platform": "SwiggyInstamart"},
{"product_id": "", "sponsored": "", "rank": "", "city": "Bangalore", "pincode": 560102, "storeid": 1231052.0, "product_url": "", "location_info": "", "Keyword": "Cracker", "platform": "SwiggyInstamart"},
{"product_id": "", "sponsored": "", "rank": "", "city": "Delhi", "pincode": 110017, "storeid": 1382291.0, "product_url": "", "location_info": "", "Keyword": "Crackers", "platform": "SwiggyInstamart"},
{"product_id": "", "sponsored": "", "rank": "", "city": "Kolkata", "pincode": 700027, "storeid": null, "product_url": "", "location_info": "", "Keyword": "Cracker", "platform": "SwiggyInstamart"},
{"product_id": "", "sponsored": "", "rank": "", "city": "Mumbai", "pincode": 400050, "storeid": 969383.0, "product_url": "", "location_info": "", "Keyword": "Crackers", "platform": "SwiggyInstamart"},
{"product_id": "", "sponsored": "", "rank": "", "city": "Delhi", "pincode": 110048, "storeid": null, "product_url": "", "location_info": "", "Keyword": "Crackers", "platform": "SwiggyInstamart"},
{"product_id": "", "sponsored": "", "rank": "", "city": "Kolkata", "pincode": 700075, "storeid": null, "product_url": "", "location_info": "", "Keyword": "Crackers", "platform": "SwiggyInstamart"},
{"product_id": "", "sponsored": "", "rank": "", "city": "Pune", "pincode": 411014, "storeid": 1389691.0, "product_url": "", "location_info": "", "Keyword": "Crackers", "platform": "SwiggyInstamart"},
{"product_id": "", "sponsored": "", "rank": "", "city": "Mumbai", "pincode": 400053, "storeid": null, "product_url": "", "location_info": "", "Keyword": "Crackers", "platform": "SwiggyInstamart"},
{"product_id": "", "sponsored": "", "rank": "", "city": "Mumbai", "pincode": 400057, "storeid": null, "product_url": "", "location_info": "", "Keyword": "Crackers", "platform": "SwiggyInstamart"},
{"product_id": "", "sponsored": "", "rank": "", "city": "Hyderabad", "pincode": 500014, "storeid": 1388312.0, "product_url": "", "location_info": "", "Keyword": "Crackers", "platform": "SwiggyInstamart"},
{"product_id": "", "sponsored": "", "rank": "", "city": "Pune", "pincode": 411057, "storeid": null, "product_url": "", "location_info": "", "Keyword": "Crackers", "platform": "SwiggyInstamart"},
{"product_id": "", "sponsored": "", "rank": "", "city": "Hyderabad", "pincode": 500084, "storeid": 1386094.0, "product_url": "", "location_info": "", "Keyword": "Crackers", "platform": "SwiggyInstamart"},
{"product_id": "", "sponsored": "", "rank": "", "city": "Pune", "pincode": 412202, "storeid": null, "product_url": "", "location_info": "", "Keyword": "Crackers", "platform": "SwiggyInstamart"},
{"product_id": "", "sponsored": "", "rank": "", "city": "Bangalore", "pincode": 560066, "storeid": 762610.0, "product_url": "", "location_info": "", "Keyword": "Crackers", "platform": "SwiggyInstamart"},
{"product_id": "", "sponsored": "", "rank": "", "city": "Bangalore", "pincode": 560078, "storeid": 1237709.0, "product_url": "", "location_info": "", "Keyword": "Crackers", "platform": "SwiggyInstamart"},
{"product_id": "", "sponsored": "", "rank": "", "city": "Hyderabad", "pincode": 501501, "storeid": null, "product_url": "", "location_info": "", "Keyword": "Crackers", "platform": "SwiggyInstamart"},
{"product_id": "", "sponsored": "", "rank": "", "city": "Bangalore", "pincode": 560102, "storeid": 1231052.0, "product_url": "", "location_info": "", "Keyword": "Crackers", "platform": "SwiggyInstamart"},
{"product_id": "", "sponsored": "", "rank": "", "city": "Delhi", "pincode": 110017, "storeid": 1382291.0, "product_url": "", "location_info": "", "Keyword": "The Bakers Dozen", "platform": "SwiggyInstamart"},
{"product_id": "", "sponsored": "", "rank": "", "city": "Kolkata", "pincode": 700027, "storeid": null, "product_url": "", "location_info": "", "Keyword": "Crackers", "platform": "SwiggyInstamart"},
{"product_id": "", "sponsored": "", "rank": "", "city": "Mumbai", "pincode": 400050, "storeid": 969383.0, "product_url": "", "location_info": "", "Keyword": "The Bakers Dozen", "platform": "SwiggyInstamart"},
{"product_id": "", "sponsored": "", "rank": "", "city": "Delhi", "pincode": 110048, "storeid": null, "product_url": "", "location_info": "", "Keyword": "The Bakers Dozen", "platform": "SwiggyInstamart"},
{"product_id": "", "sponsored": "", "rank": "", "city": "Kolkata", "pincode": 700075, "storeid": null, "product_url": "", "location_info": "", "Keyword": "The Bakers Dozen", "platform": "SwiggyInstamart"},
{"product_id": "", "sponsored": "", "rank": "", "city": "Pune", "pincode": 411014, "storeid": 1389691.0, "product_url": "", "location_info": "", "Keyword": "The Bakers Dozen", "platform": "SwiggyInstamart"},
{"product_id": "", "sponsored": "", "rank": "", "city": "Mumbai", "pincode": 400053, "storeid": null, "product_url": "", "location_info": "", "Keyword": "The Bakers Dozen", "platform": "SwiggyInstamart"},
{"product_id": "", "sponsored": "", "rank": "", "city": "Mumbai", "pincode": 400057, "storeid": null, "product_url": "", "location_info": "", "Keyword": "The Bakers Dozen", "platform": "SwiggyInstamart"},
{"product_id": "", "sponsored": "", "rank": "", "city": "Hyderabad", "pincode": 500014, "storeid": 1388312.0, "product_url": "", "location_info": "", "Keyword": "The Bakers Dozen", "platform": "SwiggyInstamart"},
{"product_id": "", "sponsored": "", "rank": "", "city": "Pune", "pincode": 411057, "storeid": null, "product_url": "", "location_info": "", "Keyword": "The Bakers Dozen", "platform": "SwiggyInstamart"},
{"product_id": "", "sponsored": "", "rank": "", "city": "Hyderabad", "pincode": 500084, "storeid": 1386094.0, "product_url": "", "location_info": "", "Keyword": "The Bakers Dozen", "platform": "SwiggyInstamart"},
{"product_id": "", "sponsored": "", "rank": "", "city": "Pune", "pincode": 412202, "storeid": null, "product_url": "", "location_info": "", "Keyword": "The Bakers Dozen", "platform": "SwiggyInstamart"},
{"product_id": "", "sponsored": "", "rank": "", "city": "Bangalore", "pincode": 560066, "storeid": 762610.0, "product_url": "", "location_info": "", "Keyword": "The Bakers Dozen", "platform": "SwiggyInstamart"},
{"product_id": "", "sponsored": "", "rank": "", "city": "Bangalore", "pincode": 560078, "storeid": 1237709.0, "product_url": "", "location_info": "", "Keyword": "The Bakers Dozen", "platform": "SwiggyInstamart"},
{"product_id": "", "sponsored": "", "rank": "", "city": "Hyderabad", "pincode": 501501, "storeid": null, "product_url": "", "location_info": "", "Keyword": "The Bakers Dozen", "platform": "SwiggyInstamart"},
{"product_id": "", "sponsored": "", "rank": "", "city": "Bangalore", "pincode": 560102, "storeid": 1231052.0, "product_url": "", "location_info": "", "Keyword": "The Bakers Dozen", "platform": "SwiggyInstamart"},
{"product_id": "", "sponsored": "", "rank": "", "city": "Delhi", "pincode": 110017, "storeid": 1382291.0, "product_url": "", "location_info": "", "Keyword": "The Baker's Dozen", "platform": "SwiggyInstamart"},
{"product_id": "", "sponsored": "", "rank": "", "city": "Kolkata", "pincode": 700027, "storeid": null, "product_url": "", "location_info": "", "Keyword": "The Bakers Dozen", "platform": "SwiggyInstamart"},
{"product_id": "", "sponsored": "", "rank": "", "city": "Mumbai", "pincode": 400050, "storeid": 969383.0, "product_url": "", "location_info": "", "Keyword": "The Baker's Dozen", "platform": "SwiggyInstamart"},
{"product_id": "", "sponsored": "", "rank": "", "city": "Delhi", "pincode": 110048, "storeid": null, "product_url": "", "location_info": "", "Keyword": "The Baker's Dozen", "platform": "SwiggyInstamart"},
{"product_id": "", "sponsored": "", "rank": "", "city": "Kolkata", "pincode": 700075, "storeid": null, "product_url": "", "location_info": "", "Keyword": "The Baker's Dozen", "platform": "SwiggyInstamart"},
{"product_id": "", "sponsored": "", "rank": "", "city": "Pune", "pincode": 411014, "storeid": 1389691.0, "product_url": "", "location_info": "", "Keyword": "The Baker's Dozen", "platform": "SwiggyInstamart"},
{"product_id": "", "sponsored": "", "rank": "", "city": "Mumbai", "pincode": 400053, "storeid": null, "product_url": "", "location_info": "", "Keyword": "The Baker's Dozen", "platform": "SwiggyInstamart"},
{"product_id": "", "sponsored": "", "rank": "", "city": "Mumbai", "pincode": 400057, "storeid": null, "product_url": "", "location_info": "", "Keyword": "The Baker's Dozen", "platform": "SwiggyInstamart"},
{"product_id": "", "sponsored": "", "rank": "", "city": "Hyderabad", "pincode": 500014, "storeid": 1388312.0, "product_url": "", "location_info": "", "Keyword": "The Baker's Dozen", "platform": "SwiggyInstamart"},
{"product_id": "", "sponsored": "", "rank": "", "city": "Pune", "pincode": 411057, "storeid": null, "product_url": "", "location_info": "", "Keyword": "The Baker's Dozen", "platform": "SwiggyInstamart"},
{"product_id": "", "sponsored": "", "rank": "", "city": "Hyderabad", "pincode": 500084, "storeid": 1386094.0, "product_url": "", "location_info": "", "Keyword": "The Baker's Dozen", "platform": "SwiggyInstamart"},
{"product_id": "", "sponsored": "", "rank": "", "city": "Pune", "pincode": 412202, "storeid": null, "product_url": "", "location_info": "", "Keyword": "The Baker's Dozen", "platform": "SwiggyInstamart"},
{"product_id": "", "sponsored": "", "rank": "", "city": "Bangalore", "pincode": 560066, "storeid": 762610.0, "product_url": "", "location_info": "", "Keyword": "The Baker's Dozen", "platform": "SwiggyInstamart"},
{"product_id": "", "sponsored": "", "rank": "", "city": "Bangalore", "pincode": 560078, "storeid": 1237709.0, "product_url": "", "location_info": "", "Keyword": "The Baker's Dozen", "platform": "SwiggyInstamart"},
{"product_id": "", "sponsored": "", "rank": "", "city": "Hyderabad", "pincode": 501501, "storeid": null, "product_url": "", "location_info": "", "Keyword": "The Baker's Dozen", "platform": "SwiggyInstamart"},
{"product_id": "", "sponsored": "", "rank": "", "city": "Bangalore", "pincode": 560102, "storeid": 1231052.0, "product_url": "", "location_info": "", "Keyword": "The Baker's Dozen", "platform": "SwiggyInstamart"},
{"product_id": "", "sponsored": "", "rank": "", "city": "Delhi", "pincode": 110017, "storeid": 1382291.0, "product_url": "", "location_info": "", "Keyword": "Bakers Dozen", "platform": "SwiggyInstamart"},
{"product_id": "", "sponsored": "", "rank": "", "city": "Kolkata", "pincode": 700027, "storeid": null, "product_url": "", "location_info": "", "Keyword": "The Baker's Dozen", "platform": "SwiggyInstamart"},
{"product_id": "", "sponsored": "", "rank": "", "city": "Mumbai", "pincode": 400050, "storeid": 969383.0, "product_url": "", "location_info": "", "Keyword": "Bakers Dozen", "platform": "SwiggyInstamart"},
{"product_id": "", "sponsored": "", "rank": "", "city": "Delhi", "pincode": 110048, "storeid": null, "product_url": "", "location_info": "", "Keyword": "Bakers Dozen", "platform": "SwiggyInstamart"},
{"product_id": "", "sponsored": "", "rank": "", "city": "Kolkata", "pincode": 700075, "storeid": null, "product_url": "", "location_info": "", "Keyword": "Bakers Dozen", "platform": "SwiggyInstamart"},
{"product_id": "", "sponsored": "", "rank": "", "city": "Pune", "pincode": 411014, "storeid": 1389691.0, "product_url": "", "location_info": "", "Keyword": "Bakers Dozen", "platform": "SwiggyInstamart"},
{"product_id": "", "sponsored": "", "rank": "", "city": "Mumbai", "pincode": 400053, "storeid": null, "product_url": "", "location_info": "", "Keyword": "Bakers Dozen", "platform": "SwiggyInstamart"},
{"product_id": "", "sponsored": "", "rank": "", "city": "Mumbai", "pincode": 400057, "storeid": null, "product_url": "", "location_info": "", "Keyword": "Bakers Dozen", "platform": "SwiggyInstamart"},
{"product_id": "", "sponsored": "", "rank": "", "city": "Hyderabad", "pincode": 500014, "storeid": 1388312.0, "product_url": "", "location_info": "", "Keyword": "Bakers Dozen", "platform": "SwiggyInstamart"},
{"product_id": "", "sponsored": "", "rank": "", "city": "Pune", "pincode": 411057, "storeid": null, "product_url": "", "location_info": "", "Keyword": "Bakers Dozen", "platform": "SwiggyInstamart"},
{"product_id": "", "sponsored": "", "rank": "", "city": "Hyderabad", "pincode": 500084, "storeid": 1386094.0, "product_url": "", "location_info": "", "Keyword": "Bakers Dozen", "platform": "SwiggyInstamart"},
{"product_id": "", "sponsored": "", "rank": "", "city": "Pune", "pincode": 412202, "storeid": null, "product_url": "", "location_info": "", "Keyword": "Bakers Dozen", "platform": "SwiggyInstamart"},
{"product_id": "", "sponsored": "", "rank": "", "city": "Bangalore", "pincode": 560066, "storeid": 762610.0, "product_url": "", "location_info": "", "Keyword": "Bakers Dozen", "platform": "SwiggyInstamart"},
{"product_id": "", "sponsored": "", "rank": "", "city": "Bangalore", "pincode": 560078, "storeid": 1237709.0, "product_url": "", "location_info": "", "Keyword": "Bakers Dozen", "platform": "SwiggyInstamart"},
{"product_id": "", "sponsored": "", "rank": "", "city": "Hyderabad", "pincode": 501501, "storeid": null, "product_url": "", "location_info": "", "Keyword": "Bakers Dozen", "platform": "SwiggyInstamart"},
{"product_id": "", "sponsored": "", "rank": "", "city": "Bangalore", "pincode": 560102, "storeid": 1231052.0, "product_url": "", "location_info": "", "Keyword": "Bakers Dozen", "platform": "SwiggyInstamart"},
{"product_id": "", "sponsored": "", "rank": "", "city": "Delhi", "pincode": 110017, "storeid": 1382291.0, "product_url": "", "location_info": "", "Keyword": "Baker's Dozen", "platform": "SwiggyInstamart"},
{"product_id": "", "sponsored": "", "rank": "", "city": "Kolkata", "pincode": 700027, "storeid": null, "product_url": "", "location_info": "", "Keyword": "Bakers Dozen", "platform": "SwiggyInstamart"},
{"product_id": "", "sponsored": "", "rank": "", "city": "Mumbai", "pincode": 400050, "storeid": 969383.0, "product_url": "", "location_info": "", "Keyword": "Baker's Dozen", "platform": "SwiggyInstamart"},
{"product_id": "", "sponsored": "", "rank": "", "city": "Delhi", "pincode": 110048, "storeid": null, "product_url": "", "location_info": "", "Keyword": "Baker's Dozen", "platform": "SwiggyInstamart"},
{"product_id": "", "sponsored": "", "rank": "", "city": "Kolkata", "pincode": 700075, "storeid": null, "product_url": "", "location_info": "", "Keyword": "Baker's Dozen", "platform": "SwiggyInstamart"},
{"product_id": "", "sponsored": "", "rank": "", "city": "Pune", "pincode": 411014, "storeid": 1389691.0, "product_url": "", "location_info": "", "Keyword": "Baker's Dozen", "platform": "SwiggyInstamart"},
{"product_id": "", "sponsored": "", "rank": "", "city": "Mumbai", "pincode": 400053, "storeid": null, "product_url": "", "location_info": "", "Keyword": "Baker's Dozen", "platform": "SwiggyInstamart"},
{"product_id": "", "sponsored": "", "rank": "", "city": "Mumbai", "pincode": 400057, "storeid": null, "product_url": "", "location_info": "", "Keyword": "Baker's Dozen", "platform": "SwiggyInstamart"},
{"product_id": "", "sponsored": "", "rank": "", "city": "Hyderabad", "pincode": 500014, "storeid": 1388312.0, "product_url": "", "location_info": "", "Keyword": "Baker's Dozen", "platform": "SwiggyInstamart"},
{"product_id": "", "sponsored": "", "rank": "", "city": "Pune", "pincode": 411057, "storeid": null, "product_url": "", "location_info": "", "Keyword": "Baker's Dozen", "platform": "SwiggyInstamart"},
{"product_id": "", "sponsored": "", "rank": "", "city": "Hyderabad", "pincode": 500084, "storeid": 1386094.0, "product_url": "", "location_info": "", "Keyword": "Baker's Dozen", "platform": "SwiggyInstamart"},
{"product_id": "", "sponsored": "", "rank": "", "city": "Pune", "pincode": 412202, "storeid": null, "product_url": "", "location_info": "", "Keyword": "Baker's Dozen", "platform": "SwiggyInstamart"},
{"product_id": "", "sponsored": "", "rank": "", "city": "Bangalore", "pincode": 560066, "storeid": 762610.0, "product_url": "", "location_info": "", "Keyword": "Baker's Dozen", "platform": "SwiggyInstamart"},
{"product_id": "", "sponsored": "", "rank": "", "city": "Bangalore", "pincode": 560078, "storeid": 1237709.0, "product_url": "", "location_info": "", "Keyword": "Baker's Dozen", "platform": "SwiggyInstamart"},
{"product_id": "", "sponsored": "", "rank": "", "city": "Hyderabad", "pincode": 501501, "storeid": null, "product_url": "", "location_info": "", "Keyword": "Baker's Dozen", "platform": "SwiggyInstamart"},
{"product_id": "", "sponsored": "", "rank": "", "city": "Bangalore", "pincode": 560102, "storeid": 1231052.0, "product_url": "", "location_info": "", "Keyword": "Baker's Dozen", "platform": "SwiggyInstamart"},
{"product_id": "", "sponsored": "", "rank": "", "city": "Kolkata", "pincode": 700027, "storeid": null, "product_url": "", "location_info": "", "Keyword": "Baker's Dozen", "platform": "SwiggyInstamart"}
]