[
{"product_id": "C9123ANW59", "sponsored": 1, "rank": 1, "city": "Delhi", "pincode": 110017, "storeid": 1382291, "location_info": "{\"address\": \"New Delhi, Delhi 110017, India\", \"lat\": 28.5279118, \"lng\": 77.2088986999999}"},
{"product_id": "SEG2QEQJCQ", "sponsored": 1, "rank": 2, "city": "Delhi", "pincode": 110017, "storeid": 1382291, "location_info": "{\"address\": \"New Delhi, Delhi 110017, India\", \"lat\": 28.5279118, \"lng\": 77.2088986999999}"},
{"product_id": "EV5BMCUSWR", "sponsored": 0, "rank": 3, "city": "Delhi", "pincode": 110017, "storeid": 1382291, "location_info": "{\"address\": \"New Delhi, Delhi 110017, India\", \"lat\": 28.5279118, \"lng\": 77.2088986999999}"},
{"product_id": "5HQ474TPHC", "sponsored": 0, "rank": 4, "city": "Delhi", "pincode": 110017, "storeid": 1382291, "location_info": "{\"address\": \"New Delhi, Delhi 110017, India\", \"lat\": 28.5279118, \"lng\": 77.2088986999999}"},
{"product_id": "CRRVNLVI3L", "sponsored": 1, "rank": 5, "city": "Delhi", "pincode": 110017, "storeid": 1382291, "location_info": "{\"address\": \"New Delhi, Delhi 110017, India\", \"lat\": 28.5279118, \"lng\": 77.2088986999999}"},
{"product_id": "EM6V951MYC", "sponsored": 1, "rank": 6, "city": "Delhi", "pincode": 110017, "storeid": 1382291, "location_info": "{\"address\": \"New Delhi, Delhi 110017, India\", \"lat\": 28.5279118, \"lng\": 77.2088986999999}"},
{"product_id": "VOHZNVVWH2", "sponsored": 0, "rank": 7, "city": "Delhi", "pincode": 110017, "storeid": 1382291, "location_info": "{\"address\": \"New Delhi, Delhi 110017, India\", \"lat\": 28.5279118, \"lng\": 77.2088986999999}"},
{"product_id": "9H0VUWTL7M", "sponsored": 0, "rank": 8, "city": "Delhi", "pincode": 110017, "storeid": 1382291, "location_info": "{\"address\": \"New Delhi, Delhi 110017, India\", \"lat\": 28.5279118, \"lng\": 77.2088986999999}"},
{"product_id": "O2V3FSMG14", "sponsored": 0, "rank": 9, "city": "Delhi", "pincode": 110017, "storeid": 1382291, "location_info": "{\"address\": \"New Delhi, Delhi 110017, India\", \"lat\": 28.5279118, \"lng\": 77.2088986999999}"},
{"product_id": "RAH3FXA3US", "sponsored": 1, "rank": 10, "city": "Delhi", "pincode": 110017, "storeid": 1382291, "location_info": "{\"address\": \"New Delhi, Delhi 110017, India\", \"lat\": 28.5279118, \"lng\": 77.2088986999999}"},
{"product_id": "K15T6EL0IC", "sponsored": 0, "rank": 11, "city": "Delhi", "pincode": 110017, "storeid": 1382291, "location_info": "{\"address\": \"New Delhi, Delhi 110017, India\", \"lat\": 28.5279118, \"lng\": 77.2088986999999}"},
{"product_id": "Q53POV8FAQ", "sponsored": 1, "rank": 12, "city": "Delhi", "pincode": 110017, "storeid": 1382291, "location_info": "{\"address\": \"New Delhi, Delhi 110017, India\", \"lat\": 28.5279118, \"lng\": 77.2088986999999}"},
{"product_id": "LWLBJ5VS17", "sponsored": 0, "rank": 13, "city": "Delhi", "pincode": 110017, "storeid": 1382291, "location_info": "{\"address\": \"New Delhi, Delhi 110017, India\", \"lat\": 28.5279118, \"lng\": 77.2088986999999}"},
{"product_id": "UKZ0DOP1NO", "sponsored": 1, "rank": 14, "city": "Delhi", "pincode": 110017, "storeid": 1382291, "location_info": "{\"address\": \"New Delhi, Delhi 110017, India\", \"lat\": 28.5279118, \"lng\": 77.2088986999999}"},
{"product_id": "WMO8PHVW1H", "sponsored": 0, "rank": 15, "city": "Delhi", "pincode": 110017, "storeid": 1382291, "location_info": "{\"address\": \"New Delhi, Delhi 110017, India\", \"lat\": 28.5279118, \"lng\": 77.2088986999999}"},
{"product_id": "H11QZM7KLD", "sponsored": 0, "rank": 16, "city": "Delhi", "pincode": 110017, "storeid": 1382291, "location_info": "{\"address\": \"New Delhi, Delhi 110017, India\", \"lat\": 28.5279118, \"lng\": 77.2088986999999}"},
{"product_id": "QLYTDD4YAI", "sponsored": 0, "rank": 17, "city": "Delhi", "pincode": 110017, "storeid": 1382291, "location_info": "{\"address\": \"New Delhi, Delhi 110017, India\", \"lat\": 28.5279118, \"lng\": 77.2088986999999}"},
{"product_id": "2W8WUDDXG0", "sponsored": 1, "rank": 18, "city": "Delhi", "pincode": 110017, "storeid": 1382291, "location_info": "{\"address\": \"New Delhi, Delhi 110017, India\", \"lat\": 28.5279118, \"lng\": 77.2088986999999}"},
{"product_id": "34JV5D5X8F", "sponsored": 0, "rank": 19, "city": "Delhi", "pincode": 110017, "storeid": 1382291, "location_info": "{\"address\": \"New Delhi, Delhi 110017, India\", \"lat\": 28.5279118, \"lng\": 77.2088986999999}"},
{"product_id": "G47V2QAW9N", "sponsored": 0, "rank": 20, "city": "Delhi", "pincode": 110017, "storeid": 1382291, "location_info": "{\"address\": \"New Delhi, Delhi 110017, India\", \"lat\": 28.5279118, \"lng\": 77.2088986999999}"},
{"product_id": "XXLFW3JU4I", "sponsored": 0, "rank": 21, "city": "Delhi", "pincode": 110017, "storeid": 1382291, "location_info": "{\"address\": \"New Delhi, Delhi 110017, India\", \"lat\": 28.5279118, \"lng\": 77.2088986999999}"},
{"product_id": "JV6P1APG0I", "sponsored": 1, "rank": 22, "city": "Delhi", "pincode": 110017, "storeid": 1382291, "location_info": "{\"address\": \"New Delhi, Delhi 110017, India\", \"lat\": 28.5279118, \"lng\": 77.2088986999999}"},
{"product_id": "FVPZ8R5I6T", "sponsored": 0, "rank": 23, "city": "Delhi", "pincode": 110017, "storeid": 1382291, "location_info": "{\"address\": \"New Delhi, Delhi 110017, India\", \"lat\": 28.5279118, \"lng\": 77.2088986999999}"},
{"product_id": "8FJ9TMNENU", "sponsored": 0, "rank": 24, "city": "Delhi", "pincode": 110017, "storeid": 1382291, "location_info": "{\"address\": \"New Delhi, Delhi 110017, India\", \"lat\": 28.5279118, \"lng\": 77.2088986999999}"},
{"product_id": "4R9HV4D9A5", "sponsored": 0, "rank": 25, "city": "Delhi", "pincode": 110017, "storeid": 1382291, "location_info": "{\"address\": \"New Delhi, Delhi 110017, India\", \"lat\": 28.5279118, \"lng\": 77.2088986999999}"},
{"product_id": "A9XW5T66CV", "sponsored": 1, "rank": 26, "city": "Delhi", "pincode": 110017, "storeid": 1382291, "location_info": "{\"address\": \"New Delhi, Delhi 110017, India\", \"lat\": 28.5279118, \"lng\": 77.2088986999999}"},
{"product_id": "IPNGR8BOGL", "sponsored": 0, "rank": 27, "city": "Delhi", "pincode": 110017, "storeid": 1382291, "location_info": "{\"address\": \"New Delhi, Delhi 110017, India\", \"lat\": 28.5279118, \"lng\": 77.2088986999999}"},
{"product_id": "TVI42QNHHH", "sponsored": 0, "rank": 28, "city": "Delhi", "pincode": 110017, "storeid": 1382291, "location_info": "{\"address\": \"New Delhi, Delhi 110017, India\", \"lat\": 28.5279118, \"lng\": 77.2088986999999}"},
{"product_id": "BXUCV1G0Z1", "sponsored": 0, "rank": 29, "city": "Delhi", "pincode": 110017, "storeid": 1382291, "location_info": "{\"address\": \"New Delhi, Delhi 110017, India\", \"lat\": 28.5279118, \"lng\": 77.2088986999999}"},
{"product_id": "GYN6PWXBEG", "sponsored": 1, "rank": 30, "city": "Delhi", "pincode": 110017, "storeid": 1382291, "location_info": "{\"address\": \"New Delhi, Delhi 110017, India\", \"lat\": 28.5279118, \"lng\": 77.2088986999999}"},
{"product_id": "KSYJSCQA82", "sponsored": 0, "rank": 31, "city": "Delhi", "pincode": 110017, "storeid": 1382291, "location_info": "{\"address\": \"New Delhi, Delhi 110017, India\", \"lat\": 28.5279118, \"lng\": 77.2088986999999}"},
{"product_id": "W5UILFZJFX", "sponsored": 0, "rank": 32, "city": "Delhi", "pincode": 110017, "storeid": 1382291, "location_info": "{\"address\": \"New Delhi, Delhi 110017, India\", \"lat\": 28.5279118, \"lng\": 77.2088986999999}"},
{"product_id": "G0HDWDWXB4", "sponsored": 0, "rank": 33, "city": "Delhi", "pincode": 110017, "storeid": 1382291, "location_info": "{\"address\": \"New Delhi, Delhi 110017, India\", \"lat\": 28.5279118, \"lng\": 77.2088986999999}"},
{"product_id": "CC7A77X4QO", "sponsored": 1, "rank": 34, "city": "Delhi", "pincode": 110017, "storeid": 1382291, "location_info": "{\"address\": \"New Delhi, Delhi 110017, India\", \"lat\": 28.5279118, \"lng\": 77.2088986999999}"},
{"product_id": "RQ71Z39CIW", "sponsored": 0, "rank": 35, "city": "Delhi", "pincode": 110017, "storeid": 1382291, "location_info": "{\"address\": \"New Delhi, Delhi 110017, India\", \"lat\": 28.5279118, \"lng\": 77.2088986999999}"},
{"product_id": "DZT7Z2ELZ9", "sponsored": 0, "rank": 36, "city": "Delhi", "pincode": 110017, "storeid": 1382291, "location_info": "{\"address\": \"New Delhi, Delhi 110017, India\", \"lat\": 28.5279118, \"lng\": 77.2088986999999}"},
{"product_id": "8I6UZ6AKAZ", "sponsored": 0, "rank": 37, "city": "Delhi", "pincode": 110017, "storeid": 1382291, "location_info": "{\"address\": \"New Delhi, Delhi 110017, India\", \"lat\": 28.5279118, \"lng\": 77.2088986999999}"},
{"product_id": "1IZSE6QXFY", "sponsored": 1, "rank": 38, "city": "Delhi", "pincode": 110017, "storeid": 1382291, "location_info": "{\"address\": \"New Delhi, Delhi 110017, India\", \"lat\": 28.5279118, \"lng\": 77.2088986999999}"},
{"product_id": "3AD0VTO5XC", "sponsored": 0, "rank": 39, "city": "Delhi", "pincode": 110017, "storeid": 1382291, "location_info": "{\"address\": \"New Delhi, Delhi 110017, India\", \"lat\": 28.5279118, \"lng\": 77.2088986999999}"},
{"product_id": "9YJD6IJ8IB", "sponsored": 0, "rank": 40, "city": "Delhi", "pincode": 110017, "storeid": 1382291, "location_info": "{\"address\": \"New Delhi, Delhi 110017, India\", \"lat\": 28.5279118, \"lng\": 77.2088986999999}"}
]